GOES 1 (SMS-C) [-]      
1 08366U 75100A   17286.55930308 -.00000223  00000-0  00000-0 0  9991
2 08366  11.8574 317.0932 0006474 279.9665 259.5126  1.00242354153292
GOES 2 [-]              
1 10061U 77048A   17286.22896420  .00000059  00000-0  00000+0 0  9994
2 10061  13.1157 326.2280 0017167 316.7859 223.3344  0.99396023 92016
GOES 3 [-]              
1 10953U 78062A   17285.46518734 -.00000330  00000-0  00000+0 0  9998
2 10953  13.2732 329.8464 0004511 286.4517  62.5629  0.99362614 97093
GOES 4 [-]              
1 11964U 80074A   17286.18646385 -.00000136  00000-0  00000+0 0  9995
2 11964  14.0582 333.5720 0031584  12.3424  24.1395  0.99228399 96182
GOES 5 [-]              
1 12472U 81049A   17286.12709934 -.00000270  00000-0  00000+0 0  9996
2 12472  14.2723 343.7968 0006219 253.1682 113.2837  1.00227489 91189
GOES 6 [-]              
1 14050U 83041A   17286.12159819 -.00000253  00000-0  00000+0 0  9996
2 14050  14.5151 348.6801 0003839 232.1485 123.0852  1.00238933184280
GOES 7 [-]              
1 17561U 87022A   17285.97069271  .00000031  00000-0  00000+0 0  9996
2 17561  15.1449   4.5773 0005466 286.4211 100.6821  0.99902915 95317
GOES 8 [-]              
1 23051U 94022A   17285.19424228 -.00000281  00000-0  00000+0 0  9994
2 23051  11.5325  37.7920 0008658 229.2585 320.0327  0.98907091 92773
GOES 9 [-]              
1 23581U 95025A   17286.35988064 -.00000241  00000-0  00000+0 0  9994
2 23581  11.0316  37.2712 0003597 157.2691 278.6514  0.98801708 81441
GOES 10 [-]             
1 24786U 97019A   17285.59360016 -.00000254  00000-0  00000+0 0  9997
2 24786   9.4240  42.0851 0031115 167.9589 192.1162  0.99126942 74649
GOES 11 [-]             
1 26352U 00022A   17286.39980619 -.00000256  00000-0  00000+0 0  9994
2 26352   5.1897  72.8374 0006775 159.6174 100.0047  0.99046010 63616
GOES 12 [-]             
1 26871U 01031A   17285.47479826  .00000040  00000-0  00000+0 0  9992
2 26871   6.5398  59.1330 0010263 223.7842 128.4994  0.99136893 59300
GOES 13 [+]             
1 29155U 06018A   17286.14625587 -.00000275  00000-0  00000+0 0  9993
2 29155   0.0977 107.3749 0001842   3.5510 249.1149  1.00273988 41741
GOES 14 [S]             
1 35491U 09033A   17286.22860597 -.00000118  00000-0  00000+0 0  9990
2 35491   0.3012 274.6421 0010572 308.2673 137.0289  1.00272566 30383
GOES 15 [+]             
1 36411U 10008A   17286.31460706  .00000064  00000-0  00000+0 0  9994
2 36411   0.2744 275.0549 0004747 279.2938 165.6583  1.00275903 27918
GOES 16 [S]             
1 41866U 16071A   17286.18707789 -.00000208  00000-0  00000+0 0  9991
2 41866   0.0332  43.9443 0001285 223.7203  92.3417  1.00270948  3333
